EUTELSAT 8 WEST B       
1 40875U 15039B   25354.90637213 -.00000042  00000+0  00000+0 0  9997
2 40875   0.0632 359.2917 0004264 271.5388 137.2014  1.00271081 37865
EUTELSAT 9B             
1 41310U 16005A   25354.90966549  .00000085  00000+0  00000+0 0  9999
2 41310   0.0633  71.8002 0004475 203.8085 150.6034  1.00272773 36329
EUTELSAT 65 WEST A      
1 41382U 16014A   25354.89501874 -.00000253  00000+0  00000+0 0  9990
2 41382   0.0529 333.3598 0002126 299.6152  73.7536  1.00273935 35745
EUTELSAT 117 WEST B     
1 41589U 16038B   25354.67065560  .00000011  00000+0  00000+0 0  9999
2 41589   0.0079 146.2318 0000434 177.0977 250.6260  1.00273449 34872
EUTELSAT 172B           
1 42741U 17029B   25354.79933812  .00000018  00000+0  00000+0 0  9995
2 42741   0.0327 122.2996 0000188 340.6051  86.4889  1.00271787 31942
EUTELSAT 7C             
1 44334U 19034B   25354.26730640  .00000072  00000+0  00000+0 0  9999
2 44334   0.0729 179.1336 0003052  73.4447 299.7414  1.00270763  5048
EUTELSAT 5 WEST B       
1 44624U 19067A   25354.90689213 -.00000019  00000+0  00000+0 0  9999
2 44624   0.0666 335.8030 0003000 294.0896 141.3279  1.00271335 22646
EUTELSAT KONNECT        
1 45027U 20005B   25354.26739307  .00000073  00000+0  00000+0 0  9999
2 45027   0.0718  94.8547 0001305 192.1408 265.5721  1.00269751 22549
